GLOBALSTAR M063         
1 26081U 00008A   25333.32473603 -.00000109  00000+0 -38424-3 0  9994
2 26081  51.9981  36.6544 0004285 265.9507 169.8403 11.86177437177172
GLOBALSTAR M062         
1 26082U 00008B   25333.29598222 -.00000046  00000+0  37389-3 0  9994
2 26082  51.9865 330.2425 0007297 103.9968 269.4693 12.43478049517165
GLOBALSTAR M060         
1 26083U 00008C   25333.65652425 -.00000067  00000+0  24162-3 0  9999
2 26083  52.0040 312.6010 0003450  94.5848  77.1506 12.17668701172527
GLOBALSTAR M064         
1 26084U 00008D   25333.73515839 -.00000071  00000+0  17851-3 0  9998
2 26084  52.0003 132.4507 0001950  53.8236 306.2777 11.88539270186782
GLOBALSTAR M065         
1 31571U 07020A   25333.69359198 -.00000067  00000+0  20671-3 0  9994
2 31571  51.9898  82.5123 0009205 316.8035 190.4829 12.62015172854302
GLOBALSTAR M069         
1 31573U 07020C   25333.79084693 -.00000078  00000+0  13034-3 0  9999
2 31573  52.0027  96.4918 0002732 103.9835  51.9779 12.23464184854399
GLOBALSTAR M072         
1 31574U 07020D   25333.61295855 -.00000079  00000+0  62604-4 0  9994
2 31574  51.9939 271.5665 0000981 322.5754 210.1605 11.91653622851180
GLOBALSTAR M071         
1 31576U 07020F   25333.68711463 -.00000132  00000+0 -40035-3 0  9995
2 31576  52.0037 127.0697 0001964  95.3059 277.8007 12.18262267515115
